NORAD_CAT_ID,OBJECT_NAME,OBJECT_TYPE,EPOCH,MEAN_MOTION,ECCENTRICITY,INCLINATION,RA_OF_ASC_NODE,ARG_OF_PERICENTER,MEAN_ANOMALY,BSTAR,MEAN_MOTION_DOT,MEAN_MOTION_DDOT,TLE_LINE0,TLE_LINE1,TLE_LINE2,SEMIMAJOR_AXIS,PERIOD,APOGEE,PERIGEE,DECAYED
49737.0,STARLINK-3225,PAYLOAD,2022-03-09 22:00:01,15.08818708,0.0001764,53.2175,226.7707,45.2282,158.9929,0.0026193,0.0004162,0.0,0 STARLINK-3225,1 49737U 21115P   22068.91668981  .00041620  00000-0  26193-2 0  9992,2 49737  53.2175 226.7707 0001764  45.2282 158.9929 15.08818708 16126,6917.945,95.439,541.031,538.59,0.0
49737.0,STARLINK-3225,PAYLOAD,2022-03-10 14:00:01,15.08862601,0.0001679,53.2174,223.7774,50.7203,176.6222,-0.0014313,-0.00023009,0.0,0 STARLINK-3225,1 49737U 21115P   22069.58334491 -.00023009  00000-0 -14313-2 0  9996,2 49737  53.2174 223.7774 0001679  50.7203 176.6222 15.08862601  3563,6917.811,95.436,540.8380000000002,538.515,0.0
49737.0,STARLINK-3225,PAYLOAD,2022-03-10 20:00:01,15.08842308,0.0001767,53.2174,222.6561,44.7916,101.2654,-0.00011459,-2.111e-05,0.0,0 STARLINK-3225,1 49737U 21115P   22069.83334491 -.00002111  00000-0 -11459-3 0  9994,2 49737  53.2174 222.6561 0001767  44.7916 101.2654 15.08842308 16263,6917.873000000001,95.437,540.961,538.516,0.0
49737.0,STARLINK-3225,PAYLOAD,2022-03-10 22:00:01,15.08845291,0.0001746,53.2171,222.2819,43.4381,195.5811,-0.00075357,-0.00012263,0.0,0 STARLINK-3225,1 49737U 21115P   22069.91668981 -.00012263  00000-0 -75357-3 0  9993,2 49737  53.2171 222.2819 0001746  43.4381 195.5811 15.08845291  3598,6917.864000000001,95.437,540.937,538.521,0.0
49737.0,STARLINK-3225,PAYLOAD,2022-03-11 14:00:01,15.08857504,0.0001691,53.2171,219.2884,47.1196,215.0321,-0.0010552,-0.0001705,0.0,0 STARLINK-3225,1 49737U 21115P   22070.58334491 -.00017050  00000-0 -10552-2 0  9998,2 49737  53.2171 219.2884 0001691  47.1196 215.0321 15.08857504  3572,6917.8269999999975,95.436,540.862,538.5219999999998,0.0
49737.0,STARLINK-3225,PAYLOAD,2022-03-11 22:00:00,15.08861185,0.0001825,53.2169,217.7929,42.5675,231.1943,-0.0011618,-0.00018742,0.0,0 STARLINK-3225,1 49737U 21115P   22070.91667824 -.00018742  00000-0 -11618-2 0  9997,2 49737  53.2169 217.7929 0001825  42.5675 231.1943 15.08861185 16429,6917.816,95.436,540.943,538.418,0.0
49737.0,STARLINK-3225,PAYLOAD,2022-03-12 14:00:01,15.08854906,0.0001825,53.2173,214.7994,46.6886,250.2932,-0.0027678,-0.00044087,0.0,0 STARLINK-3225,1 49737U 21115P   22071.58334491 -.00044087  00000-0 -27678-2 0  9996,2 49737  53.2173 214.7994 0001825  46.6886 250.2932 15.08854906  3599,6917.835,95.437,540.962,538.437,0.0
49737.0,STARLINK-3225,PAYLOAD,2022-03-12 22:00:00,15.088425199999998,0.0001916,53.2172,213.3037,42.0878,266.4849,-0.0013023,-0.00020956,0.0,0 STARLINK-3225,1 49737U 21115P   22071.91667824 -.00020956  00000-0 -13023-2 0  9990,2 49737  53.2172 213.3037 0001916  42.0878 266.4849 15.08842520  3598,6917.873000000001,95.437,541.063,538.4119999999998,0.0
49737.0,STARLINK-3225,PAYLOAD,2022-03-13 06:00:00,15.08792484,0.0001819,53.2175,211.8056,49.2817,270.8899,0.0037078,0.0005914,0.0,0 STARLINK-3225,1 49737U 21115P   22072.25001157  .00059140  00000-0  37078-2 0  9990,2 49737  53.2175 211.8056 0001819  49.2817 270.8899 15.08792484 16624,6918.026,95.441,541.149,538.632,0.0
49737.0,STARLINK-3225,PAYLOAD,2022-03-13 14:00:01,15.08838166,0.0001947,53.2178,210.3105,47.2703,284.4563,-0.0010951,-0.00017674,0.0,0 STARLINK-3225,1 49737U 21115P   22072.58334491 -.00017674  00000-0 -10951-2 0  9995,2 49737  53.2178 210.3105 0001947  47.2703 284.4563 15.08838166  3601,6917.886,95.438,541.0980000000002,538.404,0.0
49737.0,STARLINK-3225,PAYLOAD,2022-03-13 20:00:01,15.08818378,0.0002005,53.2179,209.1891,43.0922,207.3229,0.00050654,7.778e-05,0.0,0 STARLINK-3225,1 49737U 21115P   22072.83334491  .00007778  00000-0  50654-3 0  9990,2 49737  53.2179 209.1891 0002005  43.0922 207.3229 15.08818378 16715,6917.946,95.439,541.1990000000002,538.424,0.0
49737.0,STARLINK-3225,PAYLOAD,2022-03-13 22:00:01,15.08836118,0.000197,53.2177,208.8146,42.2105,301.1563,-0.0020963,-0.00033493,0.0,0 STARLINK-3225,1 49737U 21115P   22072.91668981 -.00033493  00000-0 -20963-2 0  9997,2 49737  53.2177 208.8146 0001970  42.2105 301.1563 15.08836118  3594,6917.892,95.438,541.12,538.394,0.0
49737.0,STARLINK-3225,PAYLOAD,2022-03-14 14:00:01,15.08851228,0.0001931,53.2183,205.8217,44.182,322.3598,-0.00051089,-8.412e-05,0.0,0 STARLINK-3225,1 49737U 21115P   22073.58335648 -.00008412  00000-0 -51089-3 0  9999,2 49737  53.2183 205.8217 0001931  44.1820 322.3598 15.08851228  3591,6917.846,95.437,541.047,538.375,0.0
49737.0,STARLINK-3225,PAYLOAD,2022-03-14 20:00:01,15.08835314,0.0001994,53.2182,204.7001,40.7806,244.4124,0.003743,0.0005978,0.0,0 STARLINK-3225,1 49737U 21115P   22073.83334491  .00059780  00000-0  37430-2 0  9997,2 49737  53.2182 204.7001 0001994  40.7806 244.4124 15.08835314 16865,6917.895,95.438,541.139,538.38,0.0
49737.0,STARLINK-3225,PAYLOAD,2022-03-15 02:00:01,15.08884146,0.0001834,53.2185,203.5764,43.5644,160.3335,-0.0021774,-0.00034817,0.0,0 STARLINK-3225,1 49737U 21115P   22074.08334491 -.00034817  00000-0 -21774-2 0  9995,2 49737  53.2185 203.5764 0001834  43.5644 160.3335 15.08884146 16907,6917.745,95.435,540.879,538.342,0.0
49737.0,STARLINK-3225,PAYLOAD,2022-03-15 22:00:00,15.0884691,0.0001927,53.2184,199.8367,40.5439,12.3109,-0.0025651,-0.00040889,0.0,0 STARLINK-3225,1 49737U 21115P   22074.91667824 -.00040889  00000-0 -25651-2 0  9990,2 49737  53.2184 199.8367 0001927  40.5439  12.3109 15.08846910 17020,6917.859,95.437,541.057,538.391,0.0
49737.0,STARLINK-3225,PAYLOAD,2022-03-16 14:00:01,15.08838331,0.0001921,53.2187,196.8445,44.9025,31.1154,-0.0010573,-0.00017075,0.0,0 STARLINK-3225,1 49737U 21115P   22075.58334491 -.00017075  00000-0 -10573-2 0  9993,2 49737  53.2187 196.8445 0001921  44.9025  31.1154 15.08838331 17128,6917.885,95.438,541.0790000000002,538.422,0.0
49737.0,STARLINK-3225,PAYLOAD,2022-03-16 20:00:01,15.08834481,0.0001931,53.2184,195.7226,40.6733,314.0356,0.00027395,4.074e-05,0.0,0 STARLINK-3225,1 49737U 21115P   22075.83334491  .00004074  00000-0  27395-3 0  9995,2 49737  53.2184 195.7226 0001931  40.6733 314.0356 15.08834481  3584,6917.897,95.438,541.0980000000002,538.4259999999998,0.0
49737.0,STARLINK-3225,PAYLOAD,2022-03-17 14:00:01,15.08830644,0.0001873,53.2186,192.3559,42.9004,67.87,-0.00077347,-0.00012574,0.0,0 STARLINK-3225,1 49737U 21115P   22076.58334491 -.00012574  00000-0 -77347-3 0  9996,2 49737  53.2186 192.3559 0001873  42.9004  67.8700 15.08830644 17273,6917.909000000002,95.438,541.07,538.4780000000002,0.0
49737.0,STARLINK-3225,PAYLOAD,2022-03-17 22:00:00,15.08843551,0.000189,53.2183,190.8594,40.7828,81.5615,-0.001033,-0.00016693,0.0,0 STARLINK-3225,1 49737U 21115P   22076.91667824 -.00016693  00000-0 -10330-2 0  9996,2 49737  53.2183 190.8594 0001890  40.7828  81.5615 15.08843551  3602,6917.87,95.437,541.0419999999998,538.427,0.0
49737.0,STARLINK-3225,PAYLOAD,2022-03-18 08:00:01,15.08844177,0.0001763,53.2186,188.9881,47.833,179.0005,0.00063495,9.833e-05,0.0,0 STARLINK-3225,1 49737U 21115P   22077.33334491  .00009833  00000-0  63495-3 0  9991,2 49737  53.2186 188.9881 0001763  47.8330 179.0005 15.08844177 17399,6917.868,95.437,540.952,538.513,0.0
49737.0,STARLINK-3225,PAYLOAD,2022-03-18 14:00:01,15.08853978,0.000192,53.2184,187.8673,42.2287,103.3074,-0.0016035,-0.00025727,0.0,0 STARLINK-3225,1 49737U 21115P   22077.58334491 -.00025727  00000-0 -16035-2 0  9997,2 49737  53.2184 187.8673 0001920  42.2287 103.3074 15.08853978  3614,6917.8380000000025,95.437,541.031,538.374,0.0
49737.0,STARLINK-3225,PAYLOAD,2022-03-18 22:00:00,15.088514000000002,0.0001867,53.2182,186.3706,38.6372,118.502,-0.0025504,-0.00040662,0.0,0 STARLINK-3225,1 49737U 21115P   22077.91667824 -.00040662  00000-0 -25504-2 0  9999,2 49737  53.2182 186.3706 0001867  38.6372 118.5020 15.08851400  3603,6917.846,95.437,541.002,538.419,0.0
49737.0,STARLINK-3225,PAYLOAD,2022-03-19 02:00:01,15.08815818,0.0001745,53.2185,185.6215,40.8708,302.1372,0.0015513,0.00024471,0.0,0 STARLINK-3225,1 49737U 21115P   22078.08335648  .00024471  00000-0  15513-2 0  9991,2 49737  53.2185 185.6215 0001745  40.8708 302.1372 15.08815818 17504,6917.954000000002,95.439,541.026,538.612,0.0
49737.0,STARLINK-3225,PAYLOAD,2022-03-19 14:00:01,15.08836756,0.0001938,53.2185,183.3786,39.2813,141.036,-5.0971e-05,-1.099e-05,0.0,0 STARLINK-3225,1 49737U 21115P   22078.58334491 -.00001099  00000-0 -50971-4 0  9993,2 49737  53.2185 183.3786 0001938  39.2813 141.0360 15.08836756  3590,6917.89,95.438,541.096,538.415,0.0
49737.0,STARLINK-3225,PAYLOAD,2022-03-19 22:00:01,15.088668599999998,0.0001875,53.2184,181.8817,36.7193,155.2484,-0.0042578999999999,-0.00067469,0.0,0 STARLINK-3225,1 49737U 21115P   22078.91668981 -.00067469  00000-0 -42579-2 0  9990,2 49737  53.2184 181.8817 0001875  36.7193 155.2484 15.08866860 17633,6917.7980000000025,95.436,540.96,538.366,0.0
49737.0,STARLINK-3225,PAYLOAD,2022-03-20 14:00:01,15.08827935,0.0001976,53.2186,178.8899,36.6653,178.4178,0.00044037,6.725e-05,0.0,0 STARLINK-3225,1 49737U 21115P   22079.58334491  .00006725  00000-0  44037-3 0  9998,2 49737  53.2186 178.8899 0001976  36.6653 178.4178 15.08827935 17731,6917.917,95.438,541.149,538.415,0.0
49737.0,STARLINK-3225,PAYLOAD,2022-03-20 22:00:01,15.08861433,0.0001921,53.2185,177.3928,35.889,190.8431,-0.0015269,-0.00024521,0.0,0 STARLINK-3225,1 49737U 21115P   22079.91668981 -.00024521  00000-0 -15269-2 0  9999,2 49737  53.2185 177.3928 0001921  35.8890 190.8431 15.08861433  3603,6917.815,95.436,541.009,538.351,0.0
49737.0,STARLINK-3225,PAYLOAD,2022-03-21 14:00:01,15.08857194,0.0002011,53.2187,174.40099999999995,35.6019,214.2851,-0.0022793,-0.00036398,0.0,0 STARLINK-3225,1 49737U 21115P   22080.58334491 -.00036398  00000-0 -22793-2 0  9995,2 49737  53.2187 174.4010 0002011  35.6019 214.2851 15.08857194  3580,6917.828,95.436,541.0840000000002,538.302,0.0
